ONEWEB-0597             
1 54663U 22166X   26022.19350312  .00000110  00000+0  23402-3 0  9992
2 54663  87.9211 273.1154 0001711  77.0613 283.0712 13.21826483152257
ONEWEB-0600             
1 54664U 22166Y   26022.25109992  .00000137  00000+0  29932-3 0  9999
2 54664  87.9209 273.0946 0001627  73.0295 287.1018 13.21826558152236
ONEWEB-0601             
1 54665U 22166Z   26022.24287143  .00000054  00000+0  98893-4 0  9995
2 54665  87.9212 273.1145 0001869  73.5808 286.5531 13.21826413152420
ONEWEB-0602             
1 54666U 22166AA  26022.20748192  .00000019  00000+0  13893-4 0  9996
2 54666  87.9211 273.1262 0001513  66.4077 293.7215 13.21828366152265
ONEWEB-0603             
1 54667U 22166AB  26022.21323567 -.00000025  00000+0 -91942-4 0  9993
2 54667  87.9218 273.0671 0001713  74.3271 285.8052 13.21828392152194
ONEWEB-0604             
1 54668U 22166AC  26022.12602354  .00000125  00000+0  27218-3 0  9991
2 54668  87.9210 273.1009 0001532  79.7862 280.3445 13.21828172152144
ONEWEB-0605             
1 54669U 22166AD  26022.19514573  .00000069  00000+0  13671-3 0  9999
2 54669  87.9210 273.1142 0002197  80.7906 279.3476 13.21824957152220
ONEWEB-0606             
1 54670U 22166AE  26022.21653652 -.00000013  00000+0 -62874-4 0  9997
2 54670  87.9211 273.1220 0001485  81.2617 278.8685 13.21826823152280
ONEWEB-0607             
1 54671U 22166AF  26022.18362690  .00000113  00000+0  24145-3 0  9990
2 54671  87.9212 273.0920 0001686  73.9442 286.1878 13.21826490152258
ONEWEB-0608             
1 54672U 22166AG  26022.19020230  .00000178  00000+0  39959-3 0  9993
2 54672  87.9219 273.0815 0002120  74.5275 285.6093 13.21824448152269
ONEWEB-0610             
1 54673U 22166AH  26022.24615471  .00000045  00000+0  76951-4 0  9994
2 54673  87.9209 273.0996 0002157  72.6629 287.4741 13.21825045152175
ONEWEB-0611             
1 54674U 22166AJ  26022.23957413  .00000103  00000+0  21800-3 0  9996
2 54674  87.9209 273.0971 0001376  78.1040 282.0249 13.21827177152160
ONEWEB-0612             
1 54675U 22166AK  26022.25274234  .00000183  00000+0  41196-3 0  9990
2 54675  87.9218 273.0744 0001704  75.1085 285.0238 13.21826858152155
ONEWEB-0615             
1 54676U 22166AL  26022.23299337 -.00000004  00000+0 -41243-4 0  9998
2 54676  87.9213 273.1056 0001602  76.3385 283.7927 13.21826319152164
ONEWEB-0655             
1 54677U 22166AM  26022.20831266 -.00000011  00000+0 -57940-4 0  9998
2 54677  87.9209 273.1132 0001631  67.7615 292.3692 13.21826942152153
ONEWEB-0659             
1 54678U 22166AN  26022.22476287  .00000043  00000+0  73340-4 0  9994
2 54678  87.9207 273.1102 0001561  78.8957 281.2353 13.21827311152245
