[{"OBJECT_NAME":"ONEWEB-0597","OBJECT_ID":"2022-166X","EPOCH":"2026-01-22T04:38:38.669568","MEAN_MOTION":13.21826483,"ECCENTRICITY":0.00017116,"INCLINATION":87.9211,"RA_OF_ASC_NODE":273.1154,"ARG_OF_PERICENTER":77.0613,"MEAN_ANOMALY":283.0712,"EPHEMERIS_TYPE":0,"CLASSIFICATION_TYPE":"U","NORAD_CAT_ID":54663,"ELEMENT_SET_NO":999,"REV_AT_EPOCH":15225,"BSTAR":0.0002340193,"MEAN_MOTION_DOT":1.1e-6,"MEAN_MOTION_DDOT":0},{"OBJECT_NAME":"ONEWEB-0600","OBJECT_ID":"2022-166Y","EPOCH":"2026-01-22T06:01:35.033088","MEAN_MOTION":13.21826558,"ECCENTRICITY":0.00016275,"INCLINATION":87.9209,"RA_OF_ASC_NODE":273.0946,"ARG_OF_PERICENTER":73.0295,"MEAN_ANOMALY":287.1018,"EPHEMERIS_TYPE":0,"CLASSIFICATION_TYPE":"U","NORAD_CAT_ID":54664,"ELEMENT_SET_NO":999,"REV_AT_EPOCH":15223,"BSTAR":0.00029932111,"MEAN_MOTION_DOT":1.37e-6,"MEAN_MOTION_DDOT":0},{"OBJECT_NAME":"ONEWEB-0601","OBJECT_ID":"2022-166Z","EPOCH":"2026-01-22T05:49:44.091552","MEAN_MOTION":13.21826413,"ECCENTRICITY":0.00018692,"INCLINATION":87.9212,"RA_OF_ASC_NODE":273.1145,"ARG_OF_PERICENTER":73.5808,"MEAN_ANOMALY":286.5531,"EPHEMERIS_TYPE":0,"CLASSIFICATION_TYPE":"U","NORAD_CAT_ID":54665,"ELEMENT_SET_NO":999,"REV_AT_EPOCH":15242,"BSTAR":9.8893401e-5,"MEAN_MOTION_DOT":5.4e-7,"MEAN_MOTION_DDOT":0},{"OBJECT_NAME":"ONEWEB-0602","OBJECT_ID":"2022-166AA","EPOCH":"2026-01-22T04:58:46.437888","MEAN_MOTION":13.21828366,"ECCENTRICITY":0.0001513,"INCLINATION":87.9211,"RA_OF_ASC_NODE":273.1262,"ARG_OF_PERICENTER":66.4077,"MEAN_ANOMALY":293.7215,"EPHEMERIS_TYPE":0,"CLASSIFICATION_TYPE":"U","NORAD_CAT_ID":54666,"ELEMENT_SET_NO":999,"REV_AT_EPOCH":15226,"BSTAR":1.3893198e-5,"MEAN_MOTION_DOT":1.9e-7,"MEAN_MOTION_DDOT":0},{"OBJECT_NAME":"ONEWEB-0603","OBJECT_ID":"2022-166AB","EPOCH":"2026-01-22T05:07:03.561888","MEAN_MOTION":13.21828392,"ECCENTRICITY":0.00017135,"INCLINATION":87.9218,"RA_OF_ASC_NODE":273.0671,"ARG_OF_PERICENTER":74.3271,"MEAN_ANOMALY":285.8052,"EPHEMERIS_TYPE":0,"CLASSIFICATION_TYPE":"U","NORAD_CAT_ID":54667,"ELEMENT_SET_NO":999,"REV_AT_EPOCH":15219,"BSTAR":-9.1942343e-5,"MEAN_MOTION_DOT":-2.5e-7,"MEAN_MOTION_DDOT":0},{"OBJECT_NAME":"ONEWEB-0604","OBJECT_ID":"2022-166AC","EPOCH":"2026-01-22T03:01:28.433856","MEAN_MOTION":13.21828172,"ECCENTRICITY":0.0001532,"INCLINATION":87.921,"RA_OF_ASC_NODE":273.1009,"ARG_OF_PERICENTER":79.7862,"MEAN_ANOMALY":280.3445,"EPHEMERIS_TYPE":0,"CLASSIFICATION_TYPE":"U","NORAD_CAT_ID":54668,"ELEMENT_SET_NO":999,"REV_AT_EPOCH":15214,"BSTAR":0.00027217579,"MEAN_MOTION_DOT":1.25e-6,"MEAN_MOTION_DDOT":0},{"OBJECT_NAME":"ONEWEB-0605","OBJECT_ID":"2022-166AD","EPOCH":"2026-01-22T04:41:00.591072","MEAN_MOTION":13.21824957,"ECCENTRICITY":0.00021972,"INCLINATION":87.921,"RA_OF_ASC_NODE":273.1142,"ARG_OF_PERICENTER":80.7906,"MEAN_ANOMALY":279.3476,"EPHEMERIS_TYPE":0,"CLASSIFICATION_TYPE":"U","NORAD_CAT_ID":54669,"ELEMENT_SET_NO":999,"REV_AT_EPOCH":15222,"BSTAR":0.00013670693,"MEAN_MOTION_DOT":6.9e-7,"MEAN_MOTION_DDOT":0},{"OBJECT_NAME":"ONEWEB-0606","OBJECT_ID":"2022-166AE","EPOCH":"2026-01-22T05:11:48.755328","MEAN_MOTION":13.21826823,"ECCENTRICITY":0.00014855,"INCLINATION":87.9211,"RA_OF_ASC_NODE":273.122,"ARG_OF_PERICENTER":81.2617,"MEAN_ANOMALY":278.8685,"EPHEMERIS_TYPE":0,"CLASSIFICATION_TYPE":"U","NORAD_CAT_ID":54670,"ELEMENT_SET_NO":999,"REV_AT_EPOCH":15228,"BSTAR":-6.2874449e-5,"MEAN_MOTION_DOT":-1.3e-7,"MEAN_MOTION_DDOT":0},{"OBJECT_NAME":"ONEWEB-0607","OBJECT_ID":"2022-166AF","EPOCH":"2026-01-22T04:24:25.364160","MEAN_MOTION":13.2182649,"ECCENTRICITY":0.00016865,"INCLINATION":87.9212,"RA_OF_ASC_NODE":273.092,"ARG_OF_PERICENTER":73.9442,"MEAN_ANOMALY":286.1878,"EPHEMERIS_TYPE":0,"CLASSIFICATION_TYPE":"U","NORAD_CAT_ID":54671,"ELEMENT_SET_NO":999,"REV_AT_EPOCH":15225,"BSTAR":0.0002414505,"MEAN_MOTION_DOT":1.13e-6,"MEAN_MOTION_DDOT":0},{"OBJECT_NAME":"ONEWEB-0608","OBJECT_ID":"2022-166AG","EPOCH":"2026-01-22T04:33:53.478720","MEAN_MOTION":13.21824448,"ECCENTRICITY":0.00021202,"INCLINATION":87.9219,"RA_OF_ASC_NODE":273.0815,"ARG_OF_PERICENTER":74.5275,"MEAN_ANOMALY":285.6093,"EPHEMERIS_TYPE":0,"CLASSIFICATION_TYPE":"U","NORAD_CAT_ID":54672,"ELEMENT_SET_NO":999,"REV_AT_EPOCH":15226,"BSTAR":0.00039959106,"MEAN_MOTION_DOT":1.78e-6,"MEAN_MOTION_DDOT":0},{"OBJECT_NAME":"ONEWEB-0610","OBJECT_ID":"2022-166AH","EPOCH":"2026-01-22T05:54:27.766944","MEAN_MOTION":13.21825045,"ECCENTRICITY":0.00021578,"INCLINATION":87.9209,"RA_OF_ASC_NODE":273.0996,"ARG_OF_PERICENTER":72.6629,"MEAN_ANOMALY":287.4741,"EPHEMERIS_TYPE":0,"CLASSIFICATION_TYPE":"U","NORAD_CAT_ID":54673,"ELEMENT_SET_NO":999,"REV_AT_EPOCH":15217,"BSTAR":7.695092e-5,"MEAN_MOTION_DOT":4.5e-7,"MEAN_MOTION_DDOT":0},{"OBJECT_NAME":"ONEWEB-0611","OBJECT_ID":"2022-166AJ","EPOCH":"2026-01-22T05:44:59.204832","MEAN_MOTION":13.21827177,"ECCENTRICITY":0.00013767,"INCLINATION":87.9209,"RA_OF_ASC_NODE":273.0971,"ARG_OF_PERICENTER":78.104,"MEAN_ANOMALY":282.0249,"EPHEMERIS_TYPE":0,"CLASSIFICATION_TYPE":"U","NORAD_CAT_ID":54674,"ELEMENT_SET_NO":999,"REV_AT_EPOCH":15216,"BSTAR":0.00021799956,"MEAN_MOTION_DOT":1.03e-6,"MEAN_MOTION_DDOT":0},{"OBJECT_NAME":"ONEWEB-0612","OBJECT_ID":"2022-166AK","EPOCH":"2026-01-22T06:03:56.938176","MEAN_MOTION":13.21826858,"ECCENTRICITY":0.00017041,"INCLINATION":87.9218,"RA_OF_ASC_NODE":273.0744,"ARG_OF_PERICENTER":75.1085,"MEAN_ANOMALY":285.0238,"EPHEMERIS_TYPE":0,"CLASSIFICATION_TYPE":"U","NORAD_CAT_ID":54675,"ELEMENT_SET_NO":999,"REV_AT_EPOCH":15215,"BSTAR":0.00041196112,"MEAN_MOTION_DOT":1.83e-6,"MEAN_MOTION_DDOT":0},{"OBJECT_NAME":"ONEWEB-0615","OBJECT_ID":"2022-166AL","EPOCH":"2026-01-22T05:35:30.627168","MEAN_MOTION":13.21826319,"ECCENTRICITY":0.00016027,"INCLINATION":87.9213,"RA_OF_ASC_NODE":273.1056,"ARG_OF_PERICENTER":76.3385,"MEAN_ANOMALY":283.7927,"EPHEMERIS_TYPE":0,"CLASSIFICATION_TYPE":"U","NORAD_CAT_ID":54676,"ELEMENT_SET_NO":999,"REV_AT_EPOCH":15216,"BSTAR":-4.1243497e-5,"MEAN_MOTION_DOT":-4.0e-8,"MEAN_MOTION_DDOT":0},{"OBJECT_NAME":"ONEWEB-0655","OBJECT_ID":"2022-166AM","EPOCH":"2026-01-22T04:59:58.213824","MEAN_MOTION":13.21826942,"ECCENTRICITY":0.0001631,"INCLINATION":87.9209,"RA_OF_ASC_NODE":273.1132,"ARG_OF_PERICENTER":67.7615,"MEAN_ANOMALY":292.3692,"EPHEMERIS_TYPE":0,"CLASSIFICATION_TYPE":"U","NORAD_CAT_ID":54677,"ELEMENT_SET_NO":999,"REV_AT_EPOCH":15215,"BSTAR":-5.7939741e-5,"MEAN_MOTION_DOT":-1.1e-7,"MEAN_MOTION_DDOT":0},{"OBJECT_NAME":"ONEWEB-0659","OBJECT_ID":"2022-166AN","EPOCH":"2026-01-22T05:23:39.511968","MEAN_MOTION":13.21827311,"ECCENTRICITY":0.00015615,"INCLINATION":87.9207,"RA_OF_ASC_NODE":273.1102,"ARG_OF_PERICENTER":78.8957,"MEAN_ANOMALY":281.2353,"EPHEMERIS_TYPE":0,"CLASSIFICATION_TYPE":"U","NORAD_CAT_ID":54678,"ELEMENT_SET_NO":999,"REV_AT_EPOCH":15224,"BSTAR":7.3340146e-5,"MEAN_MOTION_DOT":4.3e-7,"MEAN_MOTION_DDOT":0}]
